{
    "type": "FeatureCollection",
    "features": [
        {
            "type": "Feature",
            "properties": {
                "name": "PKG 3 - MAHARLIKA 1",
                "color": "#FFD700"
            },
            "geometry": {
                "coordinates": [
                    [
                        121.0394367855933,
                        14.784546040388335
                    ],
                    [
                        121.0386966594873,
                        14.783321995041476
                    ],
                    [
                        121.03739956494388,
                        14.784093617932072
                    ],
                    [
                        121.03628463725306,
                        14.784081346660287
                    ],
                    [
                        121.03630857447001,
                        14.784829985267308
                    ],
                    [
                        121.0365560957652,
                        14.785128372153622
                    ],
                    [
                        121.03757552720413,
                        14.785112647293843
                    ],
                    [
                        121.03817653105722,
                        14.785259694326513
                    ],
                    [
                        121.0394367855933,
                        14.784546040388335
                    ]
                ],
                "type": "LineString"
            }
        },
        {
            "type": "Feature",
            "properties": {
                "name": "PKG 3 - DAMAYAN",
                "description": "Primary area of interest in Bagong Silang"
            },
            "geometry": {
                "coordinates": [
                    [
                        121.03869898508145,
                        14.783321487830463
                    ],
                    [
                        121.03961001774314,
                        14.782821847939758
                    ],
                    [
                        121.03969482720652,
                        14.782800614486632
                    ],
                    [
                        121.03965774700174,
                        14.782737391812837
                    ],
                    [
                        121.03979493858174,
                        14.782701705056198
                    ],
                    [
                        121.04013875365362,
                        14.782798831740898
                    ],
                    [
                        121.04031746203874,
                        14.78284903902276
                    ],
                    [
                        121.0404575210018,
                        14.782887833684134
                    ],
                    [
                        121.0404762265942,
                        14.782895064137037
                    ],
                    [
                        121.04053253191353,
                        14.782943108057054
                    ],
                    [
                        121.04161811855124,
                        14.783260343058558
                    ],
                    [
                        121.04100069147813,
                        14.784194326388842
                    ],
                    [
                        121.04063001542869,
                        14.783889476470677
                    ],
                    [
                        121.03943535281269,
                        14.784545467225229
                    ],
                    [
                        121.03935426234369,
                        14.784409942804324
                    ],
                    [
                        121.03925840898279,
                        14.7842544345812
                    ],
                    [
                        121.03906867064899,
                        14.78393390200631
                    ],
                    [
                        121.03869706752135,
                        14.783321385104102
                    ]
                ],
                "type": "LineString"
            }
        },
        {
            "type": "Feature",
            "properties": {
                "name": "PKG 3 - KAUNLARAN"
            },
            "geometry": {
                "coordinates": [
                    [
                        121.03965163316332,
                        14.782736460794638
                    ],
                    [
                        121.0392107051058,
                        14.782014647471385
                    ],
                    [
                        121.0401362174652,
                        14.781744494499321
                    ],
                    [
                        121.04025408932227,
                        14.781655850481954
                    ],
                    [
                        121.04029774556437,
                        14.781529216109377
                    ],
                    [
                        121.04178642346227,
                        14.781926003564308
                    ],
                    [
                        121.04191739219277,
                        14.78282932549206
                    ],
                    [
                        121.04161616411335,
                        14.783259879481463
                    ],
                    [
                        121.04052912365478,
                        14.782943295748765
                    ],
                    [
                        121.04053348927852,
                        14.782909526790235
                    ],
                    [
                        121.03979569876736,
                        14.782702691803891
                    ],
                    [
                        121.03965599878933,
                        14.782736460794638
                    ]
                ],
                "type": "LineString"
            }
        },
        {
            "type": "Feature",
            "properties": {
                "name": "Pkg 2 - GK STAGING"
            },
            "geometry": {
                "coordinates": [
                    [
                        121.04145621181988,
                        14.780107055517135
                    ],
                    [
                        121.04166139616325,
                        14.780524951403763
                    ],
                    [
                        121.04153479305864,
                        14.780757115439002
                    ],
                    [
                        121.04234243355882,
                        14.780993500381925
                    ],
                    [
                        121.04246467103968,
                        14.780976615751669
                    ],
                    [
                        121.04256944602548,
                        14.780457412729149
                    ],
                    [
                        121.04261310226752,
                        14.78006062259071
                    ],
                    [
                        121.04249523041045,
                        14.77968493764196
                    ],
                    [
                        121.04211542109431,
                        14.77990021786026
                    ],
                    [
                        121.04163956804223,
                        14.780145046084954
                    ],
                    [
                        121.04145621181988,
                        14.780111276691215
                    ]
                ],
                "type": "LineString"
            }
        },
        {
            "type": "Feature",
            "properties": {
                "name": "Pkg 2 - BOTLOG"
            },
            "geometry": {
                "coordinates": [
                    [
                        121.04029712868305,
                        14.78152454980821
                    ],
                    [
                        121.04082555688774,
                        14.779886075393861
                    ],
                    [
                        121.04137806122179,
                        14.780084255034652
                    ],
                    [
                        121.04161866794789,
                        14.78054954565664
                    ],
                    [
                        121.04147024341455,
                        14.780824702722839
                    ],
                    [
                        121.04120200882221,
                        14.781699174841364
                    ],
                    [
                        121.04118739156911,
                        14.781767741701088
                    ],
                    [
                        121.04030064664488,
                        14.781525433500775
                    ]
                ],
                "type": "LineString"
            }
        },
        {
            "type": "Feature",
            "properties": {
                "name": "PKG 1C - SAMPALUKAN"
            },
            "geometry": {
                "coordinates": [
                    [
                        121.04153324998236,
                        14.780799751587509
                    ],
                    [
                        121.04123282276515,
                        14.781775343084902
                    ],
                    [
                        121.04176394536313,
                        14.781922624707391
                    ],
                    [
                        121.0417774199073,
                        14.781855827643454
                    ],
                    [
                        121.04363847490902,
                        14.780758375230192
                    ],
                    [
                        121.04439208209521,
                        14.780367374460553
                    ],
                    [
                        121.04423584537841,
                        14.779891957274586
                    ],
                    [
                        121.04454831881202,
                        14.779189937470932
                    ],
                    [
                        121.0444747956517,
                        14.778950006131254
                    ],
                    [
                        121.04386822957679,
                        14.779087744525256
                    ],
                    [
                        121.0424896703164,
                        14.779696458317332
                    ],
                    [
                        121.04261833584695,
                        14.780060797142568
                    ],
                    [
                        121.04246201275004,
                        14.780980698868248
                    ],
                    [
                        121.04233334721727,
                        14.780998471402867
                    ],
                    [
                        121.04208520655231,
                        14.780962926332151
                    ],
                    [
                        121.04153837804472,
                        14.780798530303741
                    ]
                ],
                "type": "LineString"
            }
        },
        {
            "type": "Feature",
            "properties": {
                "name": "PKG 1B - POWERLINE"
            },
            "geometry": {
                "coordinates": [
                    [
                        121.04422822438278,
                        14.778892958627068
                    ],
                    [
                        121.04413113653243,
                        14.778454870487792
                    ],
                    [
                        121.04411033199204,
                        14.778182182525313
                    ],
                    [
                        121.04436692131378,
                        14.778141949846926
                    ],
                    [
                        121.04475527271762,
                        14.778146420144452
                    ],
                    [
                        121.04521528420327,
                        14.778150890442888
                    ],
                    [
                        121.04525027832324,
                        14.77838670860639
                    ],
                    [
                        121.04530717238606,
                        14.778726103055206
                    ],
                    [
                        121.0444076797437,
                        14.778861999228042
                    ],
                    [
                        121.0442296551575,
                        14.778894614297258
                    ]
                ],
                "type": "LineString"
            }
        },
        {
            "type": "Feature",
            "properties": {
                "name": "PKG 1"
            },
            "geometry": {
                "coordinates": [
                    [
                        121.04439283760672,
                        14.780370181136433
                    ],
                    [
                        121.04423440969964,
                        14.779892342821569
                    ],
                    [
                        121.0445478716012,
                        14.779190109143912
                    ],
                    [
                        121.04446682511184,
                        14.77892033643613
                    ],
                    [
                        121.04493196244988,
                        14.778844895755554
                    ],
                    [
                        121.04523734837227,
                        14.778804533322386
                    ],
                    [
                        121.04529679151995,
                        14.779341119641089
                    ],
                    [
                        121.0453227850287,
                        14.779659810311955
                    ],
                    [
                        121.04528389090387,
                        14.779816489232445
                    ],
                    [
                        121.04528389090387,
                        14.7799676052784
                    ],
                    [
                        121.04439346699934,
                        14.78037015388874
                    ]
                ],
                "type": "LineString"
            }
        },
        {
            "type": "Feature",
            "properties": {
                "name": "PKG 1B - POWERLINE"
            },
            "geometry": {
                "coordinates": [
                    [
                        121.04533204118275,
                        14.77994330427643
                    ],
                    [
                        121.04571645414859,
                        14.779753135274959
                    ],
                    [
                        121.04595782972876,
                        14.779580254218942
                    ],
                    [
                        121.04602487850178,
                        14.779511101758402
                    ],
                    [
                        121.04617685572077,
                        14.779020550858206
                    ],
                    [
                        121.04574782483127,
                        14.77889236430029
                    ],
                    [
                        121.04533963134344,
                        14.778791288234046
                    ],
                    [
                        121.04527905404012,
                        14.778797901346351
                    ],
                    [
                        121.04532476276461,
                        14.779208180133566
                    ],
                    [
                        121.04536482194914,
                        14.779581942517055
                    ],
                    [
                        121.04536296044347,
                        14.779679970183224
                    ],
                    [
                        121.04533951116423,
                        14.77977160862494
                    ],
                    [
                        121.04532974063187,
                        14.779848131417936
                    ],
                    [
                        121.04532717900554,
                        14.779945290563887
                    ],
                    [
                        121.04533237578528,
                        14.779943507558215
                    ]
                ],
                "type": "LineString"
            }
        },
        {
            "type": "Feature",
            "properties": {
                "name": "PKG 4B - AKLAN WIRE"
            },
            "geometry": {
                "coordinates": [
                    [
                        121.04053706434092,
                        14.7797984196459
                    ],
                    [
                        121.04033396870602,
                        14.779886374828763
                    ],
                    [
                        121.0398479147637,
                        14.779951669803822
                    ],
                    [
                        121.03983394969282,
                        14.779881699672984
                    ],
                    [
                        121.0395436523076,
                        14.779986774471809
                    ],
                    [
                        121.03925554193609,
                        14.78013414231421
                    ],
                    [
                        121.03936129400483,
                        14.780573492448767
                    ],
                    [
                        121.03934865171215,
                        14.780611156603285
                    ],
                    [
                        121.03931496709578,
                        14.78064886921284
                    ],
                    [
                        121.0392903000868,
                        14.78066135192185
                    ],
                    [
                        121.03905678608976,
                        14.780728923177733
                    ],
                    [
                        121.03852804347503,
                        14.780860406907237
                    ],
                    [
                        121.03834882487939,
                        14.780194854764673
                    ],
                    [
                        121.03826840112521,
                        14.779901159541865
                    ],
                    [
                        121.03856628500193,
                        14.779757196156794
                    ],
                    [
                        121.03886277916513,
                        14.779609980852058
                    ],
                    [
                        121.03909175469948,
                        14.779501803079313
                    ],
                    [
                        121.03932040465622,
                        14.779389451603123
                    ],
                    [
                        121.03959009778919,
                        14.779255288292688
                    ],
                    [
                        121.03964477326713,
                        14.77922556445428
                    ],
                    [
                        121.03977324505672,
                        14.779149911911176
                    ],
                    [
                        121.03994737169603,
                        14.77905043092288
                    ],
                    [
                        121.04028682654348,
                        14.779542425494498
                    ],
                    [
                        121.04041703159453,
                        14.779714897676712
                    ],
                    [
                        121.04050283156852,
                        14.779785487437294
                    ],
                    [
                        121.04053669997893,
                        14.779798586565377
                    ]
                ],
                "type": "LineString"
            }
        },
        {
            "type": "Feature",
            "properties": {
                "name": "PKG 4A - ATLANTICA"
            },
            "geometry": {
                "coordinates": [
                    [
                        121.03853340529326,
                        14.78087274660318
                    ],
                    [
                        121.03879818772094,
                        14.781317308738352
                    ],
                    [
                        121.0392180503884,
                        14.782026543947865
                    ],
                    [
                        121.04014321400274,
                        14.78175592455257
                    ],
                    [
                        121.04025815831216,
                        14.781664630802055
                    ],
                    [
                        121.04055639389838,
                        14.780743361757033
                    ],
                    [
                        121.04058431104616,
                        14.780634259756015
                    ],
                    [
                        121.04061790448235,
                        14.780527901984076
                    ],
                    [
                        121.04068603740032,
                        14.780317930672005
                    ],
                    [
                        121.04082230323638,
                        14.779897073309385
                    ],
                    [
                        121.04053659113288,
                        14.779799713359054
                    ],
                    [
                        121.04044498622073,
                        14.779839059615767
                    ],
                    [
                        121.04033474968367,
                        14.779885912190423
                    ],
                    [
                        121.0402621215155,
                        14.779896523940952
                    ],
                    [
                        121.04009982864733,
                        14.779918019851003
                    ],
                    [
                        121.03984821678,
                        14.779951253458478
                    ],
                    [
                        121.03983395863406,
                        14.779882652444883
                    ],
                    [
                        121.03970387343435,
                        14.779928521661098
                    ],
                    [
                        121.03953846577537,
                        14.779989403506107
                    ],
                    [
                        121.03939811174985,
                        14.78006124074222
                    ],
                    [
                        121.03925620508971,
                        14.780134579237071
                    ],
                    [
                        121.0393651160756,
                        14.780579407378653
                    ],
                    [
                        121.03935346842746,
                        14.780616411837912
                    ],
                    [
                        121.03931519758197,
                        14.780658242958339
                    ],
                    [
                        121.03852803465134,
                        14.78086002816272
                    ],
                    [
                        121.03853360554109,
                        14.780872730405903
                    ]
                ],
                "type": "LineString"
            }
        },
        {
            "type": "Feature",
            "properties": {
                "name": "PKG 3 - MAHARLIKA 2"
            },
            "geometry": {
                "coordinates": [
                    [
                        121.03756078781254,
                        14.782877291229696
                    ],
                    [
                        121.03784854984713,
                        14.782718792451803
                    ],
                    [
                        121.03833835946494,
                        14.782461415108088
                    ],
                    [
                        121.03891351407947,
                        14.782120098097764
                    ],
                    [
                        121.03918083897901,
                        14.781961673329661
                    ],
                    [
                        121.03965585308691,
                        14.782735883651227
                    ],
                    [
                        121.03969443663357,
                        14.78280017349715
                    ],
                    [
                        121.0396094885948,
                        14.782824843245919
                    ],
                    [
                        121.03869398381346,
                        14.783325578279914
                    ],
                    [
                        121.03755381236726,
                        14.784003373385033
                    ],
                    [
                        121.03753249155807,
                        14.78393323337653
                    ],
                    [
                        121.03754100556745,
                        14.78378890796455
                    ],
                    [
                        121.03761551328154,
                        14.78356850542248
                    ],
                    [
                        121.03773484346834,
                        14.783292726315779
                    ],
                    [
                        121.03774543222681,
                        14.783204120853952
                    ],
                    [
                        121.03756048004738,
                        14.782877426836833
                    ]
                ],
                "type": "LineString"
            }
        },
        {
            "type": "Feature",
            "properties": {
                "name": "PKG 5 - GATNAI"
            },
            "geometry": {
                "coordinates": [
                    [
                        121.03739787465145,
                        14.78409556609472
                    ],
                    [
                        121.03755868354807,
                        14.784000547341165
                    ],
                    [
                        121.03753188206639,
                        14.783937921321026
                    ],
                    [
                        121.03754081589284,
                        14.783788914512954
                    ],
                    [
                        121.03773289318661,
                        14.783294383935967
                    ],
                    [
                        121.03774629392848,
                        14.783201524357153
                    ],
                    [
                        121.03756314736302,
                        14.78287907057647
                    ],
                    [
                        121.03716112512029,
                        14.78308854476525
                    ],
                    [
                        121.03705391918925,
                        14.783107980504127
                    ],
                    [
                        121.03662286200716,
                        14.783315294947855
                    ],
                    [
                        121.03631932540816,
                        14.783345424841613
                    ],
                    [
                        121.03614791157821,
                        14.783761603018263
                    ],
                    [
                        121.03627691369923,
                        14.783958436059152
                    ],
                    [
                        121.03628472361527,
                        14.784081066756414
                    ],
                    [
                        121.03740010649773,
                        14.784094451306274
                    ]
                ],
                "type": "LineString"
            }
        },
        {
            "type": "Feature",
            "properties": {
                "name": "PKG 5 - GATNAI"
            },
            "geometry": {
                "coordinates": [
                    [
                        121.03632078707875,
                        14.783346162786515
                    ],
                    [
                        121.03662366566999,
                        14.783315915100303
                    ],
                    [
                        121.0370431452348,
                        14.783111054142395
                    ],
                    [
                        121.03716116834755,
                        14.783090430697797
                    ],
                    [
                        121.03772426655132,
                        14.78278932731962
                    ],
                    [
                        121.03740669071931,
                        14.782137720318019
                    ],
                    [
                        121.03737143343778,
                        14.782035449179233
                    ],
                    [
                        121.03695892323316,
                        14.782161583576212
                    ],
                    [
                        121.03615858292022,
                        14.782833162781301
                    ],
                    [
                        121.03582554666758,
                        14.783136849755195
                    ],
                    [
                        121.03558743034239,
                        14.783625729093004
                    ],
                    [
                        121.03568322501303,
                        14.78361664835515
                    ],
                    [
                        121.03603259381248,
                        14.783683845801988
                    ],
                    [
                        121.03614835023069,
                        14.783761266581564
                    ],
                    [
                        121.03631956285727,
                        14.783345064835842
                    ],
                    [
                        121.03632088732155,
                        14.783346111907292
                    ]
                ],
                "type": "LineString"
            }
        },
        {
            "type": "Feature",
            "properties": {
                "name": "PKG 5 - CRASHER"
            },
            "geometry": {
                "coordinates": [
                    [
                        121.03551766034582,
                        14.782178744475601
                    ],
                    [
                        121.03569897743796,
                        14.781597355699105
                    ],
                    [
                        121.03576569147702,
                        14.781534804259422
                    ],
                    [
                        121.03656043620083,
                        14.781348865321917
                    ],
                    [
                        121.03660428256194,
                        14.781338631966008
                    ],
                    [
                        121.03666625530167,
                        14.78163992940587
                    ],
                    [
                        121.03668140134693,
                        14.781691186170391
                    ],
                    [
                        121.03679499670284,
                        14.781920621066476
                    ],
                    [
                        121.03701083395913,
                        14.782145261007287
                    ],
                    [
                        121.03695556757651,
                        14.782160099386687
                    ],
                    [
                        121.03624786714141,
                        14.782757978514624
                    ],
                    [
                        121.03585373128368,
                        14.782320355868563
                    ],
                    [
                        121.03581643074011,
                        14.782294730041798
                    ],
                    [
                        121.03551810915582,
                        14.782178604969971
                    ]
                ],
                "type": "LineString"
            }
        },
        {
            "type": "Feature",
            "properties": {
                "name": "PKG 6 - BAYANIHAN"
            },
            "geometry": {
                "coordinates": [
                    [
                        121.03616996072742,
                        14.78025219636477
                    ],
                    [
                        121.03633932480966,
                        14.780516731680706
                    ],
                    [
                        121.03636182772976,
                        14.780554522412999
                    ],
                    [
                        121.03646006057954,
                        14.780795650245665
                    ],
                    [
                        121.03647305035003,
                        14.780834725564034
                    ],
                    [
                        121.03660453427068,
                        14.781338620601929
                    ],
                    [
                        121.03576492994983,
                        14.781534413083435
                    ],
                    [
                        121.03569853397192,
                        14.781596777544351
                    ],
                    [
                        121.03551846983964,
                        14.782177731304742
                    ],
                    [
                        121.03532569007501,
                        14.782697318718263
                    ],
                    [
                        121.0350196521972,
                        14.782781198183756
                    ],
                    [
                        121.03465337064199,
                        14.782853427697788
                    ],
                    [
                        121.03484898467008,
                        14.781964937546405
                    ],
                    [
                        121.03497477548427,
                        14.781556061366416
                    ],
                    [
                        121.03484363187016,
                        14.781530183102063
                    ],
                    [
                        121.03479545666414,
                        14.781268812451472
                    ],
                    [
                        121.03495068767353,
                        14.780759009054393
                    ],
                    [
                        121.03494533487225,
                        14.780740894202438
                    ],
                    [
                        121.03560372927825,
                        14.780505401020406
                    ],
                    [
                        121.03585936796065,
                        14.780405857880652
                    ],
                    [
                        121.03611935222085,
                        14.780279830242407
                    ],
                    [
                        121.03617007896821,
                        14.78025231375156
                    ]
                ],
                "type": "LineString"
            }
        },
        {
            "type": "Feature",
            "properties": {
                "name": "PKG 5 - SAN ROQUE"
            },
            "geometry": {
                "coordinates": [
                    [
                        121.03617215412885,
                        14.780254559244312
                    ],
                    [
                        121.03653451646579,
                        14.779979108045566
                    ],
                    [
                        121.03665208009096,
                        14.779942939122122
                    ],
                    [
                        121.03698339575953,
                        14.779955856596189
                    ],
                    [
                        121.03736814943892,
                        14.779976524551628
                    ],
                    [
                        121.03790520144901,
                        14.779976524551628
                    ],
                    [
                        121.03798356565784,
                        14.779969666980094
                    ],
                    [
                        121.03827172977662,
                        14.779901534931938
                    ],
                    [
                        121.03853173696541,
                        14.780861271096256
                    ],
                    [
                        121.0381817179927,
                        14.780949109527597
                    ],
                    [
                        121.03777558910889,
                        14.780998195694295
                    ],
                    [
                        121.0373587726541,
                        14.781114452351574
                    ],
                    [
                        121.03703814458777,
                        14.781189373281848
                    ],
                    [
                        121.03659193719676,
                        14.781295295930562
                    ],
                    [
                        121.03647704541527,
                        14.780850936783253
                    ],
                    [
                        121.03636215369164,
                        14.780543501979707
                    ],
                    [
                        121.03617206219116,
                        14.78025515218593
                    ]
                ],
                "type": "LineString"
            }
        },
        {
            "type": "Feature",
            "properties": {
                "name": "PKG 5 - BRGY ANNEX (BFP)"
            },
            "geometry": {
                "coordinates": [
                    [
                        121.03659271843793,
                        14.781293365646334
                    ],
                    [
                        121.03664644715542,
                        14.78153948145949
                    ],
                    [
                        121.03667889311731,
                        14.781685180407592
                    ],
                    [
                        121.0367932858548,
                        14.78192069671708
                    ],
                    [
                        121.03701122391584,
                        14.782145724232421
                    ],
                    [
                        121.03737015537808,
                        14.782035117478472
                    ],
                    [
                        121.03740584982313,
                        14.782135048871098
                    ],
                    [
                        121.03752714557208,
                        14.7823839137601
                    ],
                    [
                        121.03772396363428,
                        14.782787167302203
                    ],
                    [
                        121.03810165692931,
                        14.782586511884503
                    ],
                    [
                        121.03862927770052,
                        14.782292422689551
                    ],
                    [
                        121.03917821499181,
                        14.781962220697054
                    ],
                    [
                        121.03853248767143,
                        14.780871405148417
                    ],
                    [
                        121.03852860903265,
                        14.780863279521995
                    ],
                    [
                        121.03818276156085,
                        14.78094953596549
                    ],
                    [
                        121.03777421133373,
                        14.78099891488695
                    ],
                    [
                        121.03724087998103,
                        14.781142037505788
                    ],
                    [
                        121.03659307696341,
                        14.781295178960349
                    ]
                ],
                "type": "LineString"
            }
        },
        {
            "type": "Feature",
            "properties": {
                "name": "PKG 7C - BS COURT"
            },
            "geometry": {
                "coordinates": [
                    [
                        121.03494552705678,
                        14.780736634568797
                    ],
                    [
                        121.03470088679734,
                        14.780696314407606
                    ],
                    [
                        121.03465918675283,
                        14.779983990328986
                    ],
                    [
                        121.03456188664927,
                        14.779849589298522
                    ],
                    [
                        121.03454520663087,
                        14.779416817410848
                    ],
                    [
                        121.03455218838667,
                        14.77858822140152
                    ],
                    [
                        121.03456038643253,
                        14.778413830759959
                    ],
                    [
                        121.03463553518333,
                        14.778408546193546
                    ],
                    [
                        121.03515474396562,
                        14.77840590418738
                    ],
                    [
                        121.0351604495927,
                        14.778486843277093
                    ],
                    [
                        121.03518641007014,
                        14.778692941223568
                    ],
                    [
                        121.03520007324244,
                        14.778762961573022
                    ],
                    [
                        121.0352697566289,
                        14.778906965744284
                    ],
                    [
                        121.03552266791229,
                        14.779360654056276
                    ],
                    [
                        121.0355989282034,
                        14.779530386424057
                    ],
                    [
                        121.0358302523054,
                        14.779806246714372
                    ],
                    [
                        121.03613252355586,
                        14.780271571122896
                    ],
                    [
                        121.03585834748435,
                        14.780406518685453
                    ],
                    [
                        121.035155953517,
                        14.780664663359303
                    ],
                    [
                        121.03495158740526,
                        14.780739117077147
                    ],
                    [
                        121.0349455411872,
                        14.78073696323483
                    ]
                ],
                "type": "LineString"
            }
        },
        {
            "type": "Feature",
            "properties": {
                "name": "Pkg 7A"
            },
            "geometry": {
                "coordinates": [
                    [
                        121.03515447646288,
                        14.778404743212704
                    ],
                    [
                        121.03519608480838,
                        14.778759833395725
                    ],
                    [
                        121.03533738947908,
                        14.779035825411228
                    ],
                    [
                        121.03553638592257,
                        14.779383918014418
                    ],
                    [
                        121.03559246673632,
                        14.779525603676106
                    ],
                    [
                        121.03583126246309,
                        14.77980722551861
                    ],
                    [
                        121.0361333750302,
                        14.780270764288588
                    ],
                    [
                        121.03632151711906,
                        14.780144821914632
                    ],
                    [
                        121.0365331752082,
                        14.779978647001045
                    ],
                    [
                        121.03665076401325,
                        14.77994366296879
                    ],
                    [
                        121.03710845582276,
                        14.779964653388816
                    ],
                    [
                        121.03711931017261,
                        14.77958682551612
                    ],
                    [
                        121.03712299885439,
                        14.778981977944255
                    ],
                    [
                        121.03682443670766,
                        14.77844353142575
                    ],
                    [
                        121.03676069872108,
                        14.778427313136035
                    ],
                    [
                        121.03521421389553,
                        14.778440287767609
                    ],
                    [
                        121.03515481299786,
                        14.778405734252871
                    ],
                    [
                        121.03515516939558,
                        14.778411093274798
                    ]
                ],
                "type": "LineString"
            }
        },
        {
            "type": "Feature",
            "properties": {
                "name": "PKG 7B - KHULITS COURT"
            },
            "geometry": {
                "coordinates": [
                    [
                        121.03456088797526,
                        14.77841380442132
                    ],
                    [
                        121.03456324382807,
                        14.777873271245554
                    ],
                    [
                        121.03457021933372,
                        14.777179579453517
                    ],
                    [
                        121.03513594114656,
                        14.777188033151816
                    ],
                    [
                        121.03510907077418,
                        14.777600165296036
                    ],
                    [
                        121.03515628531466,
                        14.778407987553251
                    ],
                    [
                        121.03464792850014,
                        14.778406788675554
                    ],
                    [
                        121.03456092953189,
                        14.778413660454902
                    ]
                ],
                "type": "LineString"
            }
        },
        {
            "type": "Feature",
            "properties": {
                "name": "PKG 7B - DATING DAAN"
            },
            "geometry": {
                "coordinates": [
                    [
                        121.03515564989789,
                        14.778406693856908
                    ],
                    [
                        121.0351409245925,
                        14.77815969213232
                    ],
                    [
                        121.03513132128387,
                        14.777973996016485
                    ],
                    [
                        121.03511979718587,
                        14.777772702451202
                    ],
                    [
                        121.03511147427832,
                        14.777636510845426
                    ],
                    [
                        121.03510891335469,
                        14.777599367615153
                    ],
                    [
                        121.03511595589413,
                        14.77749660464552
                    ],
                    [
                        121.03541174233976,
                        14.777479889953113
                    ],
                    [
                        121.03573185786342,
                        14.77746131796198
                    ],
                    [
                        121.03577731387304,
                        14.777461317676241
                    ],
                    [
                        121.03633171137238,
                        14.77746797300206
                    ],
                    [
                        121.03632267868386,
                        14.777780647165557
                    ],
                    [
                        121.03632185716896,
                        14.778129108438705
                    ],
                    [
                        121.03633407433438,
                        14.778430901869001
                    ],
                    [
                        121.03606208552429,
                        14.778433646125947
                    ],
                    [
                        121.03573380649476,
                        14.778436390221913
                    ],
                    [
                        121.0352135960677,
                        14.778440132605681
                    ],
                    [
                        121.03515587177714,
                        14.778406331392233
                    ]
                ],
                "type": "LineString"
            }
        },
        {
            "type": "Feature",
            "properties": {
                "name": "PKG 7B - PHILRADS"
            },
            "geometry": {
                "coordinates": [
                    [
                        121.03511783096593,
                        14.777496993537909
                    ],
                    [
                        121.03513720050466,
                        14.777191088507308
                    ],
                    [
                        121.03513935267654,
                        14.776918478900171
                    ],
                    [
                        121.03579146052533,
                        14.776889345028295
                    ],
                    [
                        121.03637254388673,
                        14.776897668770388
                    ],
                    [
                        121.03635564999092,
                        14.777098494842917
                    ],
                    [
                        121.03633156419914,
                        14.777468784152745
                    ],
                    [
                        121.03587496555616,
                        14.777463050437674
                    ],
                    [
                        121.03572926008542,
                        14.777461411333846
                    ],
                    [
                        121.03511742008061,
                        14.777496890302686
                    ]
                ],
                "type": "LineString"
            }
        },
        {
            "type": "Feature",
            "properties": {
                "name": "PKG 9 - UPPER"
            },
            "geometry": {
                "coordinates": [
                    [
                        121.03633501526411,
                        14.77843004514692
                    ],
                    [
                        121.03633068560549,
                        14.777471350137176
                    ],
                    [
                        121.03635719062659,
                        14.777089087932765
                    ],
                    [
                        121.0366625299882,
                        14.777096265143683
                    ],
                    [
                        121.03698404717454,
                        14.777100633940705
                    ],
                    [
                        121.03698446414535,
                        14.777779054017898
                    ],
                    [
                        121.03716630983024,
                        14.777768587906948
                    ],
                    [
                        121.03733083309487,
                        14.778028149156953
                    ],
                    [
                        121.03759277597578,
                        14.778490750401119
                    ],
                    [
                        121.03760338025847,
                        14.778508137133386
                    ],
                    [
                        121.03722482230887,
                        14.778678343307448
                    ],
                    [
                        121.03701130190461,
                        14.778782028690145
                    ],
                    [
                        121.03690908391769,
                        14.778595358265207
                    ],
                    [
                        121.03682485477395,
                        14.778443453778081
                    ],
                    [
                        121.03675766073678,
                        14.778426982201154
                    ],
                    [
                        121.03633473070329,
                        14.778431089535857
                    ]
                ],
                "type": "LineString"
            }
        },
        {
            "type": "Feature",
            "properties": {
                "name": "PKG 9 - PLAZA MANIA"
            },
            "geometry": {
                "coordinates": [
                    [
                        121.03698255945949,
                        14.777098928869435
                    ],
                    [
                        121.03700574199786,
                        14.777100529996872
                    ],
                    [
                        121.03700988173779,
                        14.777140558183845
                    ],
                    [
                        121.0375376396284,
                        14.77717604917116
                    ],
                    [
                        121.03758309045531,
                        14.777179713771801
                    ],
                    [
                        121.03759445378256,
                        14.777220001221437
                    ],
                    [
                        121.03777816092958,
                        14.777569769217024
                    ],
                    [
                        121.03795253602976,
                        14.777751940753191
                    ],
                    [
                        121.03822132866117,
                        14.778023919109359
                    ],
                    [
                        121.03827411450965,
                        14.778162108363489
                    ],
                    [
                        121.03838501525792,
                        14.778389083128104
                    ],
                    [
                        121.03810961173099,
                        14.778514187227472
                    ],
                    [
                        121.03801308323483,
                        14.778291147057644
                    ],
                    [
                        121.03797501460673,
                        14.778311880911446
                    ],
                    [
                        121.03774766052476,
                        14.77842830468542
                    ],
                    [
                        121.03759269614528,
                        14.77849020961115
                    ],
                    [
                        121.03743280987305,
                        14.778208988968373
                    ],
                    [
                        121.03734041329784,
                        14.778045081249786
                    ],
                    [
                        121.03716685458375,
                        14.777767578875356
                    ],
                    [
                        121.03698358937635,
                        14.777779453319681
                    ],
                    [
                        121.03698382611378,
                        14.777422296746039
                    ],
                    [
                        121.03698267039744,
                        14.777099014510199
                    ]
                ],
                "type": "LineString"
            }
        },
        {
            "type": "Feature",
            "properties": {
                "name": "Pkg 8B"
            },
            "geometry": {
                "coordinates": [
                    [
                        121.03836931271258,
                        14.779398639615266
                    ],
                    [
                        121.03823550531934,
                        14.779079701652805
                    ],
                    [
                        121.03831952391522,
                        14.779034568884256
                    ],
                    [
                        121.03808302712781,
                        14.778538107814299
                    ],
                    [
                        121.03838517984866,
                        14.778389693618763
                    ],
                    [
                        121.03829551135505,
                        14.77820879430326
                    ],
                    [
                        121.03822193502356,
                        14.778022708374095
                    ],
                    [
                        121.0384422746684,
                        14.777798799812672
                    ],
                    [
                        121.03846504510761,
                        14.777728744924104
                    ],
                    [
                        121.03887905312683,
                        14.777564616238621
                    ],
                    [
                        121.03963933644718,
                        14.777413128873306
                    ],
                    [
                        121.03972138585425,
                        14.777918139809415
                    ],
                    [
                        121.03976385012442,
                        14.7781803888996
                    ],
                    [
                        121.03978796139015,
                        14.778333784562363
                    ],
                    [
                        121.03980559460922,
                        14.778443333935499
                    ],
                    [
                        121.03984362917814,
                        14.778658041944773
                    ],
                    [
                        121.03982839979795,
                        14.778665350381829
                    ],
                    [
                        121.039068360469,
                        14.779095895111041
                    ],
                    [
                        121.03837741562529,
                        14.7794299378469
                    ],
                    [
                        121.03836877643806,
                        14.779399098545753
                    ]
                ],
                "type": "LineString"
            }
        },
        {
            "type": "Feature",
            "properties": {
                "name": "Pkg 8A"
            },
            "geometry": {
                "coordinates": [
                    [
                        121.03701048435516,
                        14.77878216971601
                    ],
                    [
                        121.03760340849476,
                        14.778507295375164
                    ],
                    [
                        121.037591805283,
                        14.778488222449568
                    ],
                    [
                        121.0380141613648,
                        14.778290760532428
                    ],
                    [
                        121.038115109312,
                        14.77852412349337
                    ],
                    [
                        121.03808032306785,
                        14.778538893112852
                    ],
                    [
                        121.03828702258642,
                        14.778963460002316
                    ],
                    [
                        121.03831840875756,
                        14.779035734354878
                    ],
                    [
                        121.03823602594974,
                        14.779077245911054
                    ],
                    [
                        121.03837706913885,
                        14.779431190790092
                    ],
                    [
                        121.03882785888374,
                        14.779212413109875
                    ],
                    [
                        121.03908429002843,
                        14.779088999498882
                    ],
                    [
                        121.03952289144593,
                        14.77883768618429
                    ],
                    [
                        121.03984587858764,
                        14.77865790541999
                    ],
                    [
                        121.0399069468437,
                        14.778989551204148
                    ],
                    [
                        121.03994755808623,
                        14.779051257582552
                    ],
                    [
                        121.03961454963047,
                        14.77924198632553
                    ],
                    [
                        121.03917442126487,
                        14.779458429110477
                    ],
                    [
                        121.0387787522148,
                        14.779650279421986
                    ],
                    [
                        121.03827051676484,
                        14.779902728627292
                    ],
                    [
                        121.03797695524634,
                        14.779970044133776
                    ],
                    [
                        121.03759749927679,
                        14.779976785609733
                    ],
                    [
                        121.03711155313107,
                        14.77996302043205
                    ],
                    [
                        121.03712000186005,
                        14.779541806043355
                    ],
                    [
                        121.0371212793807,
                        14.779121433321322
                    ],
                    [
                        121.03712243948343,
                        14.778980069569954
                    ],
                    [
                        121.0370116089656,
                        14.778781604188296
                    ]
                ],
                "type": "LineString"
            }
        },
        {
            "type": "Feature",
            "properties": {
                "name": "Brgy 176-E Boundary"
            },
            "geometry": {
                "coordinates": [
                    [
                        121.03456613420815,
                        14.777173324497454
                    ],
                    [
                        121.03513985306262,
                        14.777192162751831
                    ],
                    [
                        121.0351389823694,
                        14.77691829802228
                    ],
                    [
                        121.03578505783668,
                        14.776889015078012
                    ],
                    [
                        121.03637056263125,
                        14.77690072831976
                    ],
                    [
                        121.03635649734088,
                        14.777091881015465
                    ],
                    [
                        121.03700660956082,
                        14.777099689835765
                    ],
                    [
                        121.03701266322258,
                        14.777142640142657
                    ],
                    [
                        121.03758403514155,
                        14.777179732028117
                    ],
                    [
                        121.03777583545713,
                        14.777570174383001
                    ],
                    [
                        121.03821858973316,
                        14.778025482411493
                    ],
                    [
                        121.03844273242595,
                        14.7777998820345
                    ],
                    [
                        121.03846370484149,
                        14.777730174004574
                    ],
                    [
                        121.03887659816434,
                        14.777566677303014
                    ],
                    [
                        121.03961443565123,
                        14.777410411192932
                    ],
                    [
                        121.03963946918509,
                        14.777414587046323
                    ],
                    [
                        121.03972598280058,
                        14.777953245886351
                    ],
                    [
                        121.0398119977882,
                        14.77848551676928
                    ],
                    [
                        121.03986492289232,
                        14.778746150931667
                    ],
                    [
                        121.03990686687524,
                        14.778989397816375
                    ],
                    [
                        121.04019331358586,
                        14.779407983089143
                    ],
                    [
                        121.04031783702476,
                        14.779577816713768
                    ],
                    [
                        121.0404135236713,
                        14.779712161935223
                    ],
                    [
                        121.04050003488516,
                        14.77978186932775
                    ],
                    [
                        121.04054171344734,
                        14.779802335958415
                    ],
                    [
                        121.04061738989827,
                        14.77982663777479
                    ],
                    [
                        121.04073902580609,
                        14.779868204647165
                    ],
                    [
                        121.04080154365226,
                        14.779888440199937
                    ],
                    [
                        121.04082128082695,
                        14.779895800494785
                    ],
                    [
                        121.04082535657489,
                        14.779885146326322
                    ],
                    [
                        121.04127459235588,
                        14.78004858575396
                    ],
                    [
                        121.0414626397964,
                        14.780112897483974
                    ],
                    [
                        121.04164170511785,
                        14.780146680992715
                    ],
                    [
                        121.04249682373597,
                        14.779683509599408
                    ],
                    [
                        121.04264072933802,
                        14.779628789913048
                    ],
                    [
                        121.04365338245401,
                        14.779182433993427
                    ],
                    [
                        121.0438748974052,
                        14.77906830501972
                    ],
                    [
                        121.04425281112168,
                        14.77895729867646
                    ],
                    [
                        121.0442061193184,
                        14.77880102017859
                    ],
                    [
                        121.04412955351847,
                        14.77845484077217
                    ],
                    [
                        121.04411335588998,
                        14.778183369377203
                    ],
                    [
                        121.04436171953796,
                        14.77814421482077
                    ],
                    [
                        121.04462926271793,
                        14.77814389825862
                    ],
                    [
                        121.04489193269711,
                        14.778146087670336
                    ],
                    [
                        121.04521777414601,
                        14.778149371814337
                    ],
                    [
                        121.04524635272986,
                        14.778346221754518
                    ],
                    [
                        121.04527628927383,
                        14.778532747522647
                    ],
                    [
                        121.0453222253143,
                        14.778790514288389
                    ],
                    [
                        121.04534203715872,
                        14.778788015044313
                    ],
                    [
                        121.04566334317934,
                        14.778867974675194
                    ],
                    [
                        121.04602169101292,
                        14.778966258080303
                    ],
                    [
                        121.04618897961473,
                        14.779020680699091
                    ],
                    [
                        121.0460756821754,
                        14.779367586235978
                    ],
                    [
                        121.04602855223123,
                        14.779517129817037
                    ],
                    [
                        121.04594991993292,
                        14.779592133083455
                    ],
                    [
                        121.04571348686312,
                        14.77975832410624
                    ],
                    [
                        121.04537239261396,
                        14.779926824369781
                    ],
                    [
                        121.04507592765708,
                        14.780067583616926
                    ],
                    [
                        121.04452712605104,
                        14.78031413142375
                    ],
                    [
                        121.04432498372313,
                        14.78040524014159
                    ],
                    [
                        121.04286340215896,
                        14.781220942416567
                    ],
                    [
                        121.04223531020392,
                        14.781589134634132
                    ],
                    [
                        121.0417824003074,
                        14.781862004074767
                    ],
                    [
                        121.04176926947525,
                        14.781908557009928
                    ],
                    [
                        121.04179334266672,
                        14.781923369305488
                    ],
                    [
                        121.0418765046004,
                        14.782473539559675
                    ],
                    [
                        121.04193180893839,
                        14.782831546809916
                    ],
                    [
                        121.04144901855324,
                        14.783522371378439
                    ],
                    [
                        121.0410025702792,
                        14.784207962893205
                    ],
                    [
                        121.04063210722757,
                        14.783899744191245
                    ],
                    [
                        121.0396782424055,
                        14.784420529121306
                    ],
                    [
                        121.03879838697264,
                        14.784919993717367
                    ],
                    [
                        121.03817026328801,
                        14.785273336829732
                    ],
                    [
                        121.0375609681899,
                        14.78514986496991
                    ],
                    [
                        121.03655865526235,
                        14.785162561201147
                    ],
                    [
                        121.0362829078856,
                        14.784834579104299
                    ],
                    [
                        121.03626126414338,
                        14.783965711097139
                    ],
                    [
                        121.03613065204166,
                        14.783776231730187
                    ],
                    [
                        121.03602998233265,
                        14.783702170875372
                    ],
                    [
                        121.03567120436242,
                        14.78363540119733
                    ],
                    [
                        121.03556178076667,
                        14.78363116914592
                    ],
                    [
                        121.03580470057278,
                        14.783126128562728
                    ],
                    [
                        121.03623078232317,
                        14.78275793878359
                    ],
                    [
                        121.0358237265433,
                        14.782300874961038
                    ],
                    [
                        121.03551962623004,
                        14.782180291888622
                    ],
                    [
                        121.03532047528455,
                        14.782698720975517
                    ],
                    [
                        121.03465080287356,
                        14.782857423510507
                    ],
                    [
                        121.03484099699409,
                        14.781975843776806
                    ],
                    [
                        121.03497449378341,
                        14.781554751087597
                    ],
                    [
                        121.03484318546685,
                        14.781531474584412
                    ],
                    [
                        121.03479285061121,
                        14.78127331682579
                    ],
                    [
                        121.03495380826769,
                        14.780753986298478
                    ],
                    [
                        121.03494724285162,
                        14.780739173923195
                    ],
                    [
                        121.03470037042865,
                        14.780697125933216
                    ],
                    [
                        121.03468003068355,
                        14.7803508220793
                    ],
                    [
                        121.0346593568201,
                        14.77998350970283
                    ],
                    [
                        121.03456115604007,
                        14.77985024431463
                    ],
                    [
                        121.0345525419491,
                        14.77965534356747
                    ],
                    [
                        121.03454306643408,
                        14.779412604224717
                    ],
                    [
                        121.03454943449435,
                        14.778559526740821
                    ],
                    [
                        121.03455518670887,
                        14.778413510282604
                    ],
                    [
                        121.03456622649941,
                        14.777173840396514
                    ]
                ],
                "type": "LineString"
            }
        }
    ]
}